{"type": "FeatureCollection", "features": [ {"type": "Feature", "properties": {"norad_id": 35432, "name": "COSMOS 2251 DEB", "group": "cosmos-2251-debris", "lat": 73.97348687566314, "lon": 77.55441269562162, "alt_km": 490.2027967157492, "timestamp": "2025-12-24T03:53:30.043270+00:00", "meta": {"OBJECT_NAME": "COSMOS 2251 DEB", "OBJECT_ID": "1993-036AKA", "EPOCH": "2025-12-22T10:33:02.372256", "MEAN_MOTION": 15.24271254, "ECCENTRICITY": 0.00124874, "INCLINATION": 74.0191, "RA_OF_ASC_NODE": 355.0792, "ARG_OF_PERICENTER": 325.0494, "MEAN_ANOMALY": 34.9884, "EPHEMERIS_TYPE": 0, "CLASSIFICATION_TYPE": "U", "NORAD_CAT_ID": 35432, "ELEMENT_SET_NO": 999, "REV_AT_EPOCH": 87651, "BSTAR": 0.0024812627, "MEAN_MOTION_DOT": 0.00061205, "MEAN_MOTION_DDOT": 0}, "tle": {"line1": "1 35432U 93036AKA 25356.43961079  .00061205  00000+0  24813-2 0  9991", "line2": "2 35432  74.0191 355.0792 0012487 325.0494  34.9884 15.24271254876517"}}, "geometry": {"type": "Point", "coordinates": [77.55441269562162, 73.97348687566314]}}, {"type": "Feature", "properties": {"norad_id": 35433, "name": "COSMOS 2251 DEB", "group": "cosmos-2251-debris", "lat": -26.511937748692997, "lon": 145.73630126487396, "alt_km": 798.443296668429, "timestamp": "2025-12-24T03:53:30.043280+00:00", "meta": {"OBJECT_NAME": "COSMOS 2251 DEB", "OBJECT_ID": "1993-036AKB", "EPOCH": "2025-12-10T18:27:52.031808", "MEAN_MOTION": 14.34742553, "ECCENTRICITY": 0.00254013, "INCLINATION": 74.0339, "RA_OF_ASC_NODE": 342.0559, "ARG_OF_PERICENTER": 37.4572, "MEAN_ANOMALY": 142.4072, "EPHEMERIS_TYPE": 0, "CLASSIFICATION_TYPE": "U", "NORAD_CAT_ID": 35433, "ELEMENT_SET_NO": 999, "REV_AT_EPOCH": 86552, "BSTAR": 0.00041847558, "MEAN_MOTION_DOT": 1.164e-05, "MEAN_MOTION_DDOT": 0}, "tle": {"line1": "1 35433U 93036AKB 25344.76935222  .00001164  00000+0  41848-3 0  9992", "line2": "2 35433  74.0339 342.0559 0025401  37.4572 142.4072 14.34742553865528"}}, "geometry": {"type": "Point", "coordinates": [145.73630126487396, -26.511937748692997]}}, {"type": "Feature", "properties": {"norad_id": 35434, "name": "COSMOS 2251 DEB", "group": "cosmos-2251-debris", "lat": 64.53777104860252, "lon": -23.93471957302139, "alt_km": 854.2755911395589, "timestamp": "2025-12-24T03:53:30.043290+00:00", "meta": {"OBJECT_NAME": "COSMOS 2251 DEB", "OBJECT_ID": "1993-036AKC", "EPOCH": "2025-12-22T05:54:05.337504", "MEAN_MOTION": 14.2571381, "ECCENTRICITY": 0.00872817, "INCLINATION": 74.039, "RA_OF_ASC_NODE": 196.4671, "ARG_OF_PERICENTER": 265.2189, "MEAN_ANOMALY": 93.8988, "EPHEMERIS_TYPE": 0, "CLASSIFICATION_TYPE": "U", "NORAD_CAT_ID": 35434, "ELEMENT_SET_NO": 999, "REV_AT_EPOCH": 86253, "BSTAR": 0.00053067113, "MEAN_MOTION_DOT": 1.284e-05, "MEAN_MOTION_DDOT": 0}, "tle": {"line1": "1 35434U 93036AKC 25356.24589511  .00001284  00000+0  53067-3 0  9994", "line2": "2 35434  74.0390 196.4671 0087281 265.2189  93.8988 14.25713810862538"}}, "geometry": {"type": "Point", "coordinates": [-23.93471957302139, 64.53777104860252]}}, {"type": "Feature", "properties": {"norad_id": 35435, "name": "COSMOS 2251 DEB", "group": "cosmos-2251-debris", "lat": -39.9505813094611, "lon": 67.68706292648275, "alt_km": 643.0662125359368, "timestamp": "2025-12-24T03:53:30.043301+00:00", "meta": {"OBJECT_NAME": "COSMOS 2251 DEB", "OBJECT_ID": "1993-036AKD", "EPOCH": "2025-12-21T23:02:18.053952", "MEAN_MOTION": 14.78725447, "ECCENTRICITY": 0.0007022, "INCLINATION": 74.0111, "RA_OF_ASC_NODE": 85.9177, "ARG_OF_PERICENTER": 183.0187, "MEAN_ANOMALY": 296.3821, "EPHEMERIS_TYPE": 0, "CLASSIFICATION_TYPE": "U", "NORAD_CAT_ID": 35435, "ELEMENT_SET_NO": 999, "REV_AT_EPOCH": 87675, "BSTAR": 0.0022341039, "MEAN_MOTION_DOT": 0.00016414, "MEAN_MOTION_DDOT": 0}, "tle": {"line1": "1 35435U 93036AKD 25355.95993118  .00016414  00000+0  22341-2 0  9995", "line2": "2 35435  74.0111  85.9177 0007022 183.0187 296.3821 14.78725447876755"}}, "geometry": {"type": "Point", "coordinates": [67.68706292648275, -39.9505813094611]}}, {"type": "Feature", "properties": {"norad_id": 35439, "name": "COSMOS 2251 DEB", "group": "cosmos-2251-debris", "lat": -34.56986021117357, "lon": 103.77983050975718, "alt_km": 790.7650700253662, "timestamp": "2025-12-24T03:53:30.043312+00:00", "meta": {"OBJECT_NAME": "COSMOS 2251 DEB", "OBJECT_ID": "1993-036AKH", "EPOCH": "2025-12-23T01:03:41.280192", "MEAN_MOTION": 13.9285581, "ECCENTRICITY": 0.02428241, "INCLINATION": 74.0195, "RA_OF_ASC_NODE": 117.083, "ARG_OF_PERICENTER": 284.1415, "MEAN_ANOMALY": 194.5054, "EPHEMERIS_TYPE": 0, "CLASSIFICATION_TYPE": "U", "NORAD_CAT_ID": 35439, "ELEMENT_SET_NO": 999, "REV_AT_EPOCH": 84104, "BSTAR": 0.0017241175, "MEAN_MOTION_DOT": 2.822e-05, "MEAN_MOTION_DDOT": 0}, "tle": {"line1": "1 35439U 93036AKH 25357.04422778  .00002822  00000+0  17241-2 0  9991", "line2": "2 35439  74.0195 117.0830 0242824 284.1415 194.5054 13.92855810841046"}}, "geometry": {"type": "Point", "coordinates": [103.77983050975718, -34.56986021117357]}}, {"type": "Feature", "properties": {"norad_id": 35440, "name": "COSMOS 2251 DEB", "group": "cosmos-2251-debris", "lat": -73.24639032443443, "lon": 113.2574437154939, "alt_km": 639.0277316724996, "timestamp": "2025-12-24T03:53:30.043322+00:00", "meta": {"OBJECT_NAME": "COSMOS 2251 DEB", "OBJECT_ID": "1993-036AKJ", "EPOCH": "2025-12-22T19:34:52.667040", "MEAN_MOTION": 14.68858524, "ECCENTRICITY": 0.00697181, "INCLINATION": 74.0136, "RA_OF_ASC_NODE": 188.1002, "ARG_OF_PERICENTER": 326.674, "MEAN_ANOMALY": 33.0049, "EPHEMERIS_TYPE": 0, "CLASSIFICATION_TYPE": "U", "NORAD_CAT_ID": 35440, "ELEMENT_SET_NO": 999, "REV_AT_EPOCH": 68913, "BSTAR": 0.00037964995, "MEAN_MOTION_DOT": 2.268e-05, "MEAN_MOTION_DDOT": 0}, "tle": {"line1": "1 35440U 93036AKJ 25356.81588735  .00002268  00000+0  37965-3 0  9993", "line2": "2 35440  74.0136 188.1002 0069718 326.6740  33.0049 14.68858524689135"}}, "geometry": {"type": "Point", "coordinates": [113.2574437154939, -73.24639032443443]}}, {"type": "Feature", "properties": {"norad_id": 35441, "name": "COSMOS 2251 DEB", "group": "cosmos-2251-debris", "lat": -23.166629336493592, "lon": -90.64678547228563, "alt_km": 714.2318401580424, "timestamp": "2025-12-24T03:53:30.043347+00:00", "meta": {"OBJECT_NAME": "COSMOS 2251 DEB", "OBJECT_ID": "1993-036AKK", "EPOCH": "2025-12-23T01:44:22.571808", "MEAN_MOTION": 14.62737504, "ECCENTRICITY": 0.003608, "INCLINATION": 74.135, "RA_OF_ASC_NODE": 278.4179, "ARG_OF_PERICENTER": 171.2985, "MEAN_ANOMALY": 188.8816, "EPHEMERIS_TYPE": 0, "CLASSIFICATION_TYPE": "U", "NORAD_CAT_ID": 35441, "ELEMENT_SET_NO": 999, "REV_AT_EPOCH": 87581, "BSTAR": 0.001573097, "MEAN_MOTION_DOT": 8.072e-05, "MEAN_MOTION_DDOT": 0}, "tle": {"line1": "1 35441U 93036AKK 25357.07248347  .00008072  00000+0  15731-2 0  9990", "line2": "2 35441  74.1350 278.4179 0036080 171.2985 188.8816 14.62737504875815"}}, "geometry": {"type": "Point", "coordinates": [-90.64678547228563, -23.166629336493592]}}, {"type": "Feature", "properties": {"norad_id": 35442, "name": "COSMOS 2251 DEB", "group": "cosmos-2251-debris", "lat": 38.519317095136365, "lon": 89.64212743948107, "alt_km": 608.2827313361013, "timestamp": "2025-12-24T03:53:30.043360+00:00", "meta": {"OBJECT_NAME": "COSMOS 2251 DEB", "OBJECT_ID": "1993-036AKL", "EPOCH": "2025-12-21T22:20:48.255648", "MEAN_MOTION": 14.84734411, "ECCENTRICITY": 0.00038381, "INCLINATION": 74.0273, "RA_OF_ASC_NODE": 80.8914, "ARG_OF_PERICENTER": 50.7376, "MEAN_ANOMALY": 309.4143, "EPHEMERIS_TYPE": 0, "CLASSIFICATION_TYPE": "U", "NORAD_CAT_ID": 35442, "ELEMENT_SET_NO": 999, "REV_AT_EPOCH": 87489, "BSTAR": 0.0021156, "MEAN_MOTION_DOT": 0.00017947, "MEAN_MOTION_DDOT": 0}, "tle": {"line1": "1 35442U 93036AKL 25355.93111407  .00017947  00000+0  21156-2 0  9999", "line2": "2 35442  74.0273  80.8914 0003838  50.7376 309.4143 14.84734411874890"}}, "geometry": {"type": "Point", "coordinates": [89.64212743948107, 38.519317095136365]}}, {"type": "Feature", "properties": {"norad_id": 35443, "name": "COSMOS 2251 DEB", "group": "cosmos-2251-debris", "lat": -46.205636002979944, "lon": 145.83711059121381, "alt_km": 619.9871387025305, "timestamp": "2025-12-24T03:53:30.043371+00:00", "meta": {"OBJECT_NAME": "COSMOS 2251 DEB", "OBJECT_ID": "1993-036AKM", "EPOCH": "2025-12-22T07:35:27.878496", "MEAN_MOTION": 14.97448955, "ECCENTRICITY": 0.00729664, "INCLINATION": 73.9898, "RA_OF_ASC_NODE": 312.1571, "ARG_OF_PERICENTER": 91.4914, "MEAN_ANOMALY": 269.4631, "EPHEMERIS_TYPE": 0, "CLASSIFICATION_TYPE": "U", "NORAD_CAT_ID": 35443, "ELEMENT_SET_NO": 999, "REV_AT_EPOCH": 87021, "BSTAR": 0.0042887537, "MEAN_MOTION_DOT": 0.00053082, "MEAN_MOTION_DDOT": 0}, "tle": {"line1": "1 35443U 93036AKM 25356.31629489  .00053082  00000+0  42888-2 0  9992", "line2": "2 35443  73.9898 312.1571 0072966  91.4914 269.4631 14.97448955870218"}}, "geometry": {"type": "Point", "coordinates": [145.83711059121381, -46.205636002979944]}}, {"type": "Feature", "properties": {"norad_id": 35445, "name": "COSMOS 2251 DEB", "group": "cosmos-2251-debris", "lat": 32.20682886193556, "lon": 87.8440182698781, "alt_km": 774.624809306617, "timestamp": "2025-12-24T03:53:30.043381+00:00", "meta": {"OBJECT_NAME": "COSMOS 2251 DEB", "OBJECT_ID": "1993-036AKP", "EPOCH": "2025-12-20T02:09:32.474016", "MEAN_MOTION": 14.59298517, "ECCENTRICITY": 0.0143911, "INCLINATION": 74.0379, "RA_OF_ASC_NODE": 285.9917, "ARG_OF_PERICENTER": 11.2111, "MEAN_ANOMALY": 349.2201, "EPHEMERIS_TYPE": 0, "CLASSIFICATION_TYPE": "U", "NORAD_CAT_ID": 35445, "ELEMENT_SET_NO": 999, "REV_AT_EPOCH": 87436, "BSTAR": 0.001392614, "MEAN_MOTION_DOT": 7.582e-05, "MEAN_MOTION_DDOT": 0}, "tle": {"line1": "1 35445U 93036AKP 25354.08995919  .00007582  00000+0  13926-2 0  9995", "line2": "2 35445  74.0379 285.9917 0143911  11.2111 349.2201 14.59298517874360"}}, "geometry": {"type": "Point", "coordinates": [87.8440182698781, 32.20682886193556]}}]}